{"links": {"self": "http://www.neowsapp.com/rest/v1/neo/2000433?api_key=FmrG2O4vhIIH0uDdm1blYB13CNhWmoy9QjeKfrjm"}, "id": "2000433", "neo_reference_id": "2000433", "name": "433 Eros (A898 PA)", "name_limited": "Eros", "designation": "433", "nasa_jpl_url": "http://ssd.jpl.nasa.gov/sbdb.cgi?sstr=2000433", "absolute_magnitude_h": 10.43, "estimated_diameter": {"kilometers": {"estimated_diameter_min": 21.8049440483, "estimated_diameter_max": 48.7573371375}, "meters": {"estimated_diameter_min": 21804.9440482866, "estimated_diameter_max": 48757.3371375482}, "miles": {"estimated_diameter_min": 13.5489598882, "estimated_diameter_max": 30.2963953345}, "feet": {"estimated_diameter_min": 71538.5326313805, "estimated_diameter_max": 159965.0219743538}}, "is_potentially_hazardous_asteroid": false, "close_approach_data": {"close_approach_date": "2137-01-25", "close_approach_date_full": "2137-Jan-25 14:12", "epoch_date_close_approach": 5272179120000, "relative_velocity": {"kilometers_per_second": "5.8142759703", "kilometers_per_hour": "20931.393493074", "miles_per_hour": "13005.9539179604"}, "miss_distance": {"astronomical": "0.1494623094", "lunar": "58.1408383566", "kilometers": "22359243.131520978", "miles": "13893389.4368983764"}, "orbiting_body": "Earth"}, "orbital_data": {"orbit_id": "659", "orbit_determination_date": "2021-05-24 17:55:05", "first_observation_date": "1893-10-29", "last_observation_date": "2021-05-13", "data_arc_in_days": 46582, "observations_used": 9130, "orbit_uncertainty": "0", "minimum_orbit_intersection": ".149124", "jupiter_tisserand_invariant": "4.582", "epoch_osculation": "2459600.5", "eccentricity": ".2227273342470533", "semi_major_axis": "1.458273100364966", "inclination": "10.82846064209305", "ascending_node_longitude": "304.2963534821116", "orbital_period": "643.2158297959286", "perihelion_distance": "1.133475820116491", "perihelion_argument": "178.8971619902451", "aphelion_distance": "1.78307038061344", "perihelion_time": "2459802.569605474861", "mean_anomaly": "246.9041236220357", "mean_motion": ".5596877180622503", "equinox": "J2000", "orbit_class": {"orbit_class_type": "AMO", "orbit_class_description": "Near-Earth asteroid orbits similar to that of 1221 Amor", "orbit_class_range": "1.017 AU < q (perihelion) < 1.3 AU"}}, "is_sentry_object": false}